{
  "type": "FeatureCollection",
  "features": [
    {
      "type": "Feature",
      "properties": {
        "norad_id": 30556,
        "name": "FENGYUN 1C DEB",
        "group": "fengyun-1c-debris",
        "lat": -25.121680927820666,
        "lon": -3.771490910655134,
        "alt_km": 928.091218595664,
        "timestamp": "2025-12-25T07:00:34.323805+00:00",
        "meta_object_name": "FENGYUN 1C DEB",
        "meta_object_id": "1999-025AKW",
        "meta_epoch": "2025-12-24T22:49:50.028672",
        "meta_mean_motion": 14.0137443,
        "meta_eccentricity": 0.00687409,
        "meta_inclination": 98.7808,
        "meta_ra_of_asc_node": 351.7446,
        "meta_arg_of_pericenter": 203.1698,
        "meta_mean_anomaly": 212.5951,
        "meta_ephemeris_type": 0,
        "meta_classification_type": "U",
        "meta_norad_cat_id": 30556,
        "meta_element_set_no": 999,
        "meta_rev_at_epoch": 96428,
        "meta_bstar": 0.0001861956,
        "meta_mean_motion_dot": 2.44e-06,
        "meta_mean_motion_ddot": 0,
        "tle_line1": "1 30556U 99025AKW 25358.95127348  .00000244  00000+0  18620-3 0  9995",
        "tle_line2": "2 30556  98.7808 351.7446 0068740 203.1698 212.5951 14.01374430964286"
      },
      "geometry": {
        "type": "Point",
        "coordinates": [
          -3.771490910655134,
          -25.121680927820666
        ]
      }
    },
    {
      "type": "Feature",
      "properties": {
        "norad_id": 30557,
        "name": "FENGYUN 1C DEB",
        "group": "fengyun-1c-debris",
        "lat": 15.008869600772984,
        "lon": -113.22686786032352,
        "alt_km": 815.3113326712064,
        "timestamp": "2025-12-25T07:00:34.323824+00:00",
        "meta_object_name": "FENGYUN 1C DEB",
        "meta_object_id": "1999-025AKX",
        "meta_epoch": "2025-12-22T16:57:14.652576",
        "meta_mean_motion": 14.10841924,
        "meta_eccentricity": 0.00687056,
        "meta_inclination": 98.9195,
        "meta_ra_of_asc_node": 61.7935,
        "meta_arg_of_pericenter": 204.7549,
        "meta_mean_anomaly": 155.032,
        "meta_ephemeris_type": 0,
        "meta_classification_type": "U",
        "meta_norad_cat_id": 30557,
        "meta_element_set_no": 999,
        "meta_rev_at_epoch": 96441,
        "meta_bstar": 0.0012107904,
        "meta_mean_motion_dot": 2.174e-05,
        "meta_mean_motion_ddot": 0,
        "tle_line1": "1 30557U 99025AKX 25356.70641959  .00002174  00000+0  12108-2 0  9994",
        "tle_line2": "2 30557  98.9195  61.7935 0068705 204.7549 155.0320 14.10841924964415"
      },
      "geometry": {
        "type": "Point",
        "coordinates": [
          -113.22686786032352,
          15.008869600772984
        ]
      }
    },
    {
      "type": "Feature",
      "properties": {
        "norad_id": 30558,
        "name": "FENGYUN 1C DEB",
        "group": "fengyun-1c-debris",
        "lat": 47.443525384437656,
        "lon": -30.310103097481186,
        "alt_km": 1252.7115989682234,
        "timestamp": "2025-12-25T07:00:34.323844+00:00",
        "meta_object_name": "FENGYUN 1C DEB",
        "meta_object_id": "1999-025AKY",
        "meta_epoch": "2025-12-18T02:35:59.256672",
        "meta_mean_motion": 13.28535877,
        "meta_eccentricity": 0.04271131,
        "meta_inclination": 99.4659,
        "meta_ra_of_asc_node": 132.6231,
        "meta_arg_of_pericenter": 260.3076,
        "meta_mean_anomaly": 94.9567,
        "meta_ephemeris_type": 0,
        "meta_classification_type": "U",
        "meta_norad_cat_id": 30558,
        "meta_element_set_no": 999,
        "meta_rev_at_epoch": 90829,
        "meta_bstar": 0.0032374201,
        "meta_mean_motion_dot": 2.396e-05,
        "meta_mean_motion_ddot": 0,
        "tle_line1": "1 30558U 99025AKY 25352.10832473  .00002396  00000+0  32374-2 0  9991",
        "tle_line2": "2 30558  99.4659 132.6231 0427113 260.3076  94.9567 13.28535877908292"
      },
      "geometry": {
        "type": "Point",
        "coordinates": [
          -30.310103097481186,
          47.443525384437656
        ]
      }
    },
    {
      "type": "Feature",
      "properties": {
        "norad_id": 30560,
        "name": "FENGYUN 1C DEB",
        "group": "fengyun-1c-debris",
        "lat": -18.04393148799438,
        "lon": 169.86489091323602,
        "alt_km": 763.2586414816906,
        "timestamp": "2025-12-25T07:00:34.323863+00:00",
        "meta_object_name": "FENGYUN 1C DEB",
        "meta_object_id": "1999-025ALA",
        "meta_epoch": "2025-12-24T12:02:12.466752",
        "meta_mean_motion": 14.17038441,
        "meta_eccentricity": 0.01154555,
        "meta_inclination": 98.6643,
        "meta_ra_of_asc_node": 351.9418,
        "meta_arg_of_pericenter": 177.8466,
        "meta_mean_anomaly": 309.2974,
        "meta_ephemeris_type": 0,
        "meta_classification_type": "U",
        "meta_norad_cat_id": 30560,
        "meta_element_set_no": 999,
        "meta_rev_at_epoch": 97535,
        "meta_bstar": 0.00021403873,
        "meta_mean_motion_dot": 4.17e-06,
        "meta_mean_motion_ddot": 0,
        "tle_line1": "1 30560U 99025ALA 25358.50153318  .00000417  00000+0  21404-3 0  9993",
        "tle_line2": "2 30560  98.6643 351.9418 0115455 177.8466 309.2974 14.17038441975359"
      },
      "geometry": {
        "type": "Point",
        "coordinates": [
          169.86489091323602,
          -18.04393148799438
        ]
      }
    },
    {
      "type": "Feature",
      "properties": {
        "norad_id": 30561,
        "name": "FENGYUN 1C DEB",
        "group": "fengyun-1c-debris",
        "lat": 36.64112496107069,
        "lon": -5.485752737399444,
        "alt_km": 819.3599079542109,
        "timestamp": "2025-12-25T07:00:34.323882+00:00",
        "meta_object_name": "FENGYUN 1C DEB",
        "meta_object_id": "1999-025ALB",
        "meta_epoch": "2025-12-24T15:49:33.312576",
        "meta_mean_motion": 14.11285201,
        "meta_eccentricity": 0.00607608,
        "meta_inclination": 98.7247,
        "meta_ra_of_asc_node": 0.4578,
        "meta_arg_of_pericenter": 80.6615,
        "meta_mean_anomaly": 344.563,
        "meta_ephemeris_type": 0,
        "meta_classification_type": "U",
        "meta_norad_cat_id": 30561,
        "meta_element_set_no": 999,
        "meta_rev_at_epoch": 97146,
        "meta_bstar": 0.0003278808,
        "meta_mean_motion_dot": 5.6e-06,
        "meta_mean_motion_ddot": 0,
        "tle_line1": "1 30561U 99025ALB 25358.65941334  .00000560  00000+0  32788-3 0  9999",
        "tle_line2": "2 30561  98.7247   0.4578 0060760  80.6615 344.5630 14.11285201971460"
      },
      "geometry": {
        "type": "Point",
        "coordinates": [
          -5.485752737399444,
          36.64112496107069
        ]
      }
    },
    {
      "type": "Feature",
      "properties": {
        "norad_id": 30562,
        "name": "FENGYUN 1C DEB",
        "group": "fengyun-1c-debris",
        "lat": 75.40231567442413,
        "lon": 30.665140681891504,
        "alt_km": 845.1966259656792,
        "timestamp": "2025-12-25T07:00:34.323902+00:00",
        "meta_object_name": "FENGYUN 1C DEB",
        "meta_object_id": "1999-025ALC",
        "meta_epoch": "2025-12-24T16:10:01.353792",
        "meta_mean_motion": 14.23133182,
        "meta_eccentricity": 0.00599666,
        "meta_inclination": 98.7626,
        "meta_ra_of_asc_node": 66.365,
        "meta_arg_of_pericenter": 230.9594,
        "meta_mean_anomaly": 281.0374,
        "meta_ephemeris_type": 0,
        "meta_classification_type": "U",
        "meta_norad_cat_id": 30562,
        "meta_element_set_no": 999,
        "meta_rev_at_epoch": 97169,
        "meta_bstar": 0.0015647244,
        "meta_mean_motion_dot": 3.556e-05,
        "meta_mean_motion_ddot": 0,
        "tle_line1": "1 30562U 99025ALC 25358.67362678  .00003556  00000+0  15647-2 0  9992",
        "tle_line2": "2 30562  98.7626  66.3650 0059966 230.9594 281.0374 14.23133182971694"
      },
      "geometry": {
        "type": "Point",
        "coordinates": [
          30.665140681891504,
          75.40231567442413
        ]
      }
    },
    {
      "type": "Feature",
      "properties": {
        "norad_id": 30564,
        "name": "FENGYUN 1C DEB",
        "group": "fengyun-1c-debris",
        "lat": -50.821456507483994,
        "lon": 21.67334423011013,
        "alt_km": 983.8931931741381,
        "timestamp": "2025-12-25T07:00:34.323922+00:00",
        "meta_object_name": "FENGYUN 1C DEB",
        "meta_object_id": "1999-025ALE",
        "meta_epoch": "2025-12-24T07:24:54.030816",
        "meta_mean_motion": 14.05780963,
        "meta_eccentricity": 0.02029283,
        "meta_inclination": 98.7959,
        "meta_ra_of_asc_node": 9.7662,
        "meta_arg_of_pericenter": 86.502,
        "meta_mean_anomaly": 291.0084,
        "meta_ephemeris_type": 0,
        "meta_classification_type": "U",
        "meta_norad_cat_id": 30564,
        "meta_element_set_no": 999,
        "meta_rev_at_epoch": 96458,
        "meta_bstar": 0.00059313782,
        "meta_mean_motion_dot": 1.125e-05,
        "meta_mean_motion_ddot": 0,
        "tle_line1": "1 30564U 99025ALE 25358.30895869  .00001125  00000+0  59314-3 0  9997",
        "tle_line2": "2 30564  98.7959   9.7662 0202928  86.5020 291.0084 14.05780963964580"
      },
      "geometry": {
        "type": "Point",
        "coordinates": [
          21.67334423011013,
          -50.821456507483994
        ]
      }
    }
  ]
}